2021-022F               
1 47937U 21022F   26068.98445793  .00011656  00000+0  38691-3 0  9996
2 47937  97.3982 329.8375 0012088  85.9268 274.3355 15.31317672274529
UTMN 2 (RS27S)          
1 57203U 23091AP  26068.96467497  .00016013  00000+0  56136-3 0  9990
2 57203  97.5194 134.9490 0009737  76.0788 284.1534 15.29495965149361
